NORAD_CAT_ID,OBJECT_NAME,OBJECT_TYPE,EPOCH,MEAN_MOTION,ECCENTRICITY,INCLINATION,RA_OF_ASC_NODE,ARG_OF_PERICENTER,MEAN_ANOMALY,BSTAR,MEAN_MOTION_DOT,MEAN_MOTION_DDOT,TLE_LINE0,TLE_LINE1,TLE_LINE2,SEMIMAJOR_AXIS,PERIOD,APOGEE,PERIGEE,DECAYED
52280.0,STARLINK-3764,PAYLOAD,2022-05-26 20:00:01,15.49913684,0.0001595999999999,53.2151,202.4082,38.4235,352.3098,-0.0012572,-0.00071233,0.0,0 STARLINK-3764,1 52280U 22041V   22146.83334491 -.00071233  00000-0 -12572-2 0  9993,2 52280  53.2151 202.4082 0001596  38.4235 352.3098 15.49913684  6747,6795.115,92.908,418.065,415.896,0.0
52280.0,STARLINK-3764,PAYLOAD,2022-05-26 22:00:00,15.49874179,0.0001503,53.2152,202.0094,37.1621,98.8133,-1.1952e-05,-1.129e-05,0.0,0 STARLINK-3764,1 52280U 22041V   22146.91667824 -.00001129  00000-0 -11952-4 0  9991,2 52280  53.2152 202.0094 0001503  37.1621  98.8133 15.49874179  1304,6795.231,92.911,418.117,416.074,0.0
52280.0,STARLINK-3764,PAYLOAD,2022-05-27 02:00:01,15.49853484,0.0001511,53.2151,201.2123,40.8022,305.6282,0.0010139,0.00057452,0.0,0 STARLINK-3764,1 52280U 22041V   22147.08334491  .00057452  00000-0  10139-2 0  9993,2 52280  53.2151 201.2123 0001511  40.8022 305.6282 15.49853484  6789,6795.291,92.912,418.1830000000001,416.13,0.0
52280.0,STARLINK-3764,PAYLOAD,2022-05-27 14:00:01,15.49858512,0.0001803,53.2152,198.8252,34.3777,223.4028,0.00099727,0.00056506,0.0,0 STARLINK-3764,1 52280U 22041V   22147.58334491  .00056506  00000-0  99727-3 0  9998,2 52280  53.2152 198.8252 0001803  34.3777 223.4028 15.49858512  6864,6795.276999999999,92.912,418.367,415.916,0.0
52280.0,STARLINK-3764,PAYLOAD,2022-05-27 22:00:01,15.49884299,0.0001636999999999,53.2159,197.2302,38.3169,280.4437,0.00043036,0.00024048,0.0,0 STARLINK-3764,1 52280U 22041V   22147.91668981  .00024048  00000-0  43036-3 0  9997,2 52280  53.2159 197.2302 0001637  38.3169 280.4437 15.49884299  1306,6795.201,92.91,418.179,415.954,0.0
52280.0,STARLINK-3764,PAYLOAD,2022-05-28 02:49:12,15.50020861,0.0002541,53.216,196.2691,39.9677,320.152,-0.00051131,-0.00029506,0.0,0 STARLINK-3764,1 52280U 22041V   22148.11750944 -.00029506  00000-0 -51131-3 0  9992,2 52280  53.2160 196.2691 0002541  39.9677 320.1520 15.50020861  6943,6794.802,92.902,418.394,414.941,0.0
52280.0,STARLINK-3764,PAYLOAD,2022-05-28 12:06:23,15.49919206,0.0001743,53.2163,194.4212,34.6095,325.5028,-1.7107e-05,-1.424e-05,0.0,0 STARLINK-3764,1 52280U 22041V   22148.50444151 -.00001424  00000-0 -17107-4 0  9990,2 52280  53.2163 194.4212 0001743  34.6095 325.5028 15.49919206  5785,6795.099,92.908,418.149,415.78,0.0
52280.0,STARLINK-3764,PAYLOAD,2022-05-28 14:00:01,15.49913795,0.0001847,53.2159,194.0461,33.277,47.2907,-0.00021622,-0.00012717,0.0,0 STARLINK-3764,1 52280U 22041V   22148.58334491 -.00012717  00000-0 -21622-3 0  9996,2 52280  53.2159 194.0461 0001847  33.2770  47.2907 15.49913795  7011,6795.115,92.908,418.235,415.725,0.0
52280.0,STARLINK-3764,PAYLOAD,2022-05-28 19:50:40,15.49915964,0.0001779,53.2151,192.8803,41.3453,318.7691,8.0655e-05,4.133e-05,0.0,0 STARLINK-3764,1 52280U 22041V   22148.82686127  .00004133  00000-0  80655-4 0  9992,2 52280  53.2151 192.8803 0001779  41.3453 318.7691 15.49915964  7051,6795.109,92.908,418.1830000000001,415.765,0.0
52280.0,STARLINK-3764,PAYLOAD,2022-05-29 04:00:00,15.49887207,0.0001519,53.2159,191.2564,36.4679,60.7324,0.00020785,0.00011363,0.0,0 STARLINK-3764,1 52280U 22041V   22149.16667824  .00011363  00000-0  20785-3 0  9993,2 52280  53.2159 191.2564 0001519  36.4679  60.7324 15.49887207  7104,6795.193,92.91,418.09,416.026,0.0
52280.0,STARLINK-3764,PAYLOAD,2022-05-29 12:52:07,15.49895784,0.0001622,53.2152,189.4903,35.3816,324.7302,2.7657e-06,-2.95e-06,0.0,0 STARLINK-3764,1 52280U 22041V   22149.53619507 -.00000295  00000-0  27657-5 0  9999,2 52280  53.2152 189.4903 0001622  35.3816 324.7302 15.49895784  5947,6795.168000000002,92.909,418.135,415.93,0.0
52280.0,STARLINK-3764,PAYLOAD,2022-05-29 14:00:01,15.49885487,0.0001773,53.2153,189.267,31.4369,231.8966,-0.00034584,-0.00020031,0.0,0 STARLINK-3764,1 52280U 22041V   22149.58334491 -.00020031  00000-0 -34584-3 0  9996,2 52280  53.2153 189.2670 0001773  31.4369 231.8966 15.49885487  7174,6795.198,92.91,418.268,415.858,0.0
52280.0,STARLINK-3764,PAYLOAD,2022-05-29 22:00:00,15.49827502,0.0001699,53.2155,187.672,40.7873,283.4733,0.00047468,0.00026526,0.0,0 STARLINK-3764,1 52280U 22041V   22149.91667824  .00026526  00000-0  47468-3 0  9990,2 52280  53.2155 187.6720 0001699  40.7873 283.4733 15.49827502  1302,6795.3669999999975,92.914,418.387,416.078,0.0
52280.0,STARLINK-3764,PAYLOAD,2022-05-30 14:00:01,15.49834007,0.0001986,53.2155,184.488,36.5848,49.3976,0.00081207,0.00045826,0.0,0 STARLINK-3764,1 52280U 22041V   22150.58334491  .00045826  00000-0  81207-3 0  9999,2 52280  53.2155 184.4880 0001986  36.5848  49.3976 15.49834007  1304,6795.348000000001,92.913,418.56300000000016,415.864,0.0
52280.0,STARLINK-3764,PAYLOAD,2022-05-30 22:00:00,15.49839496,0.0001799,53.2157,182.893,40.7746,106.0884,0.00079707,0.00044975,0.0,0 STARLINK-3764,1 52280U 22041V   22150.91667824  .00044975  00000-0  79707-3 0  9991,2 52280  53.2157 182.8930 0001799  40.7746 106.0884 15.49839496  7379,6795.331999999999,92.913,418.42,415.975,0.0
52280.0,STARLINK-3764,PAYLOAD,2022-05-31 06:00:02,15.49881059,0.0001961,53.2159,181.3009,41.6937,166.1063,-0.00035883,-0.00020762,0.0,0 STARLINK-3764,1 52280U 22041V   22151.25002315 -.00020762  00000-0 -35883-3 0  9994,2 52280  53.2159 181.3009 0001961  41.6937 166.1063 15.49881059  1300,6795.2109999999975,92.91,418.408,415.74300000000005,0.0
52280.0,STARLINK-3764,PAYLOAD,2022-05-31 14:00:01,15.4986268,0.0002089,53.2154,179.7088,37.1445,231.4905,0.00056379,0.00031651,0.0,0 STARLINK-3764,1 52280U 22041V   22151.58334491  .00031651  00000-0  56379-3 0  9993,2 52280  53.2154 179.7088 0002089  37.1445 231.4905 15.49862680  7484,6795.264,92.911,418.549,415.71,0.0
52280.0,STARLINK-3764,PAYLOAD,2022-05-31 22:00:00,15.49857558,0.0001914,53.2154,178.1139,42.4064,287.1404,0.00092332,0.00052252,0.0,0 STARLINK-3764,1 52280U 22041V   22151.91667824  .00052252  00000-0  92332-3 0  9998,2 52280  53.2154 178.1139 0001914  42.4064 287.1404 15.49857558  1301,6795.279,92.912,418.445,415.844,0.0
52280.0,STARLINK-3764,PAYLOAD,2022-06-01 10:30:45,15.49879248,0.0001997,53.2161,175.6225,43.0089,317.1077,0.00011551,6.108e-05,0.0,0 STARLINK-3764,1 52280U 22041V   22152.43803152  .00006108  00000-0  11551-3 0  9995,2 52280  53.2161 175.6225 0001997  43.0089 317.1077 15.49879248  7612,6795.215999999999,92.91,418.43800000000016,415.724,0.0
52280.0,STARLINK-3764,PAYLOAD,2022-06-01 20:00:01,15.49843794,0.0001828,53.2173,173.7436,31.2787,15.7305,-0.012225,-0.00639483,0.0,0 STARLINK-3764,1 52280U 22041V   22152.83334491 -.00639483  00000-0 -12225-1 0  9991,2 52280  53.2173 173.7436 0001828  31.2787  15.7305 15.49843794  7673,6795.32,92.913,418.427,415.942,0.0
52280.0,STARLINK-3764,PAYLOAD,2022-06-02 15:55:32,15.49056226,0.0001584,53.2153,169.7692,25.21,334.8987,-0.0052172,-0.00278047,0.0,0 STARLINK-3764,1 52280U 22041V   22153.66357109 -.00278047  00000-0 -52172-2 0  9995,2 52280  53.2153 169.7692 0001584  25.2100 334.8987 15.49056226  7803,6797.623000000001,92.96,420.564,418.411,0.0
52280.0,STARLINK-3764,PAYLOAD,2022-06-03 12:04:50,15.45506408,0.0008583999999999,53.2157,165.7762,80.4996,279.6982,-0.030786,-0.01353093,0.0,0 STARLINK-3764,1 52280U 22041V   22154.50335906 -.01353093  00000-0 -30786-1 0  9992,2 52280  53.2157 165.7762 0008584  80.4996 279.6982 15.45506408  7937,6808.026999999999,93.173,435.737,424.048,0.0
52280.0,STARLINK-3764,PAYLOAD,2022-06-03 15:10:10,15.47816547,0.0001763,53.2161,165.1583,24.1236,335.9855,-0.0062023999999999,-0.00314952,0.0,0 STARLINK-3764,1 52280U 22041V   22154.63206259 -.00314952  00000-0 -62024-2 0  9995,2 52280  53.2161 165.1583 0001763  24.1236 335.9855 15.47816547  7958,6801.252,93.034,424.316,421.918,0.0
52280.0,STARLINK-3764,PAYLOAD,2022-06-04 12:52:30,15.46627095,0.0001304,53.2183,160.864,41.0856,319.025,-0.0089445,-0.00429299,0.0,0 STARLINK-3764,1 52280U 22041V   22155.53646306 -.00429299  00000-0 -89445-2 0  9993,2 52280  53.2183 160.8640 0001304  41.0856 319.0250 15.46627095  8090,6804.738,93.106,427.491,425.716,0.0
52280.0,STARLINK-3764,PAYLOAD,2022-06-05 22:00:00,15.43648363,0.0001606,53.2174,154.349,42.0909,75.1852,-0.017036,-0.0072083,0.0,0 STARLINK-3764,1 52280U 22041V   22156.91667824 -.00720830  00000-0 -17036-1 0  9995,2 52280  53.2174 154.3490 0001606  42.0909  75.1852 15.43648363  8306,6813.489000000001,93.285,436.449,434.26,0.0
52280.0,STARLINK-3764,PAYLOAD,2022-06-06 14:00:01,15.42629271,0.0001565999999999,53.2172,151.2013,51.56800000000001,171.3078,-0.017661,-0.00721811,0.0,0 STARLINK-3764,1 52280U 22041V   22157.58334491 -.00721811  00000-0 -17661-1 0  9994,2 52280  53.2172 151.2013 0001566  51.5680 171.3078 15.42629271  1305,6816.49,93.347,439.422,437.287,0.0
52280.0,STARLINK-3764,PAYLOAD,2022-06-06 22:00:00,15.42117351,0.0001518,53.2174,149.6268,49.3391,225.4197,-0.017878,-0.00718435,0.0,0 STARLINK-3764,1 52280U 22041V   22157.91667824 -.00718435  00000-0 -17878-1 0  9998,2 52280  53.2174 149.6268 0001518  49.3391 225.4197 15.42117351  1305,6817.998000000001,93.378,440.898,438.828,0.0
52280.0,STARLINK-3764,PAYLOAD,2022-06-07 06:00:00,15.41608752,0.0001693,53.2173,148.0573,38.3016,287.7241,-0.01825,-0.00720795,0.0,0 STARLINK-3764,1 52280U 22041V   22158.25001157 -.00720795  00000-0 -18250-1 0  9994,2 52280  53.2173 148.0573 0001693  38.3016 287.7241 15.41608752  8512,6819.498000000001,93.409,442.517,440.208,0.0
52280.0,STARLINK-3764,PAYLOAD,2022-06-07 14:00:01,15.41098874,0.0001361999999999,53.2173,146.4866,47.7903,328.8913,-0.018559,-0.00720555,0.0,0 STARLINK-3764,1 52280U 22041V   22158.58334491 -.00720555  00000-0 -18559-1 0  9996,2 52280  53.2173 146.4866 0001362  47.7903 328.8913 15.41098874  1302,6821.002,93.44,443.796,441.93800000000016,0.0
